[
  {
    "OBJECT_NAME": "STARLINK-31037",
    "OBJECT_ID": "2023-192F",
    "EPOCH": "2025-04-16T12:19:42.358080",
    "MEAN_MOTION": 15.30197862,
    "ECCENTRICITY": 0.000143,
    "INCLINATION": 53.1605,
    "RA_OF_ASC_NODE": 142.4346,
    "ARG_OF_PERICENTER": 96.9451,
    "MEAN_ANOMALY": 263.1712,
    "EPHEMERIS_TYPE": 0,
    "CLASSIFICATION_TYPE": "U",
    "NORAD_CAT_ID": 58536,
    "ELEMENT_SET_NO": 999,
    "REV_AT_EPOCH": 7589,
    "BSTAR": 6.1738e-5,
    "MEAN_MOTION_DOT": 1.469e-5,
    "MEAN_MOTION_DDOT": 0
  },
  {
    "OBJECT_NAME": "STARLINK-31041",
    "OBJECT_ID": "2023-192G",
    "EPOCH": "2025-04-16T12:18:10.757664",
    "MEAN_MOTION": 15.30200924,
    "ECCENTRICITY": 0.0001345,
    "INCLINATION": 53.1587,
    "RA_OF_ASC_NODE": 142.4045,
    "ARG_OF_PERICENTER": 89.0717,
    "MEAN_ANOMALY": 271.0438,
    "EPHEMERIS_TYPE": 0,
    "CLASSIFICATION_TYPE": "U",
    "NORAD_CAT_ID": 58537,
    "ELEMENT_SET_NO": 999,
    "REV_AT_EPOCH": 7709,
    "BSTAR": 5.3567e-5,
    "MEAN_MOTION_DOT": 1.228e-5,
    "MEAN_MOTION_DDOT": 0
  },
  {
    "OBJECT_NAME": "STARLINK-31014",
    "OBJECT_ID": "2023-192H",
    "EPOCH": "2025-04-16T18:49:35.203872",
    "MEAN_MOTION": 15.30201888,
    "ECCENTRICITY": 0.0001263,
    "INCLINATION": 53.1605,
    "RA_OF_ASC_NODE": 141.2567,
    "ARG_OF_PERICENTER": 92.505,
    "MEAN_ANOMALY": 267.6095,
    "EPHEMERIS_TYPE": 0,
    "CLASSIFICATION_TYPE": "U",
    "NORAD_CAT_ID": 58538,
    "ELEMENT_SET_NO": 999,
    "REV_AT_EPOCH": 7593,
    "BSTAR": 2.648e-5,
    "MEAN_MOTION_DOT": 4.25e-6,
    "MEAN_MOTION_DDOT": 0
  },
  {
    "OBJECT_NAME": "STARLINK-31055",
    "OBJECT_ID": "2023-192J",
    "EPOCH": "2025-04-16T18:54:08.756640",
    "MEAN_MOTION": 15.30200403,
    "ECCENTRICITY": 0.0001266,
    "INCLINATION": 53.1604,
    "RA_OF_ASC_NODE": 141.278,
    "ARG_OF_PERICENTER": 98.3163,
    "MEAN_ANOMALY": 261.7982,
    "EPHEMERIS_TYPE": 0,
    "CLASSIFICATION_TYPE": "U",
    "NORAD_CAT_ID": 58539,
    "ELEMENT_SET_NO": 999,
    "REV_AT_EPOCH": 7593,
    "BSTAR": 7.1995e-5,
    "MEAN_MOTION_DOT": 1.774e-5,
    "MEAN_MOTION_DDOT": 0
  },
  {
    "OBJECT_NAME": "STARLINK-31019",
    "OBJECT_ID": "2023-192K",
    "EPOCH": "2025-04-16T12:24:15.341472",
    "MEAN_MOTION": 15.30210289,
    "ECCENTRICITY": 8.88e-5,
    "INCLINATION": 53.1605,
    "RA_OF_ASC_NODE": 142.4314,
    "ARG_OF_PERICENTER": 80.0013,
    "MEAN_ANOMALY": 280.1088,
    "EPHEMERIS_TYPE": 0,
    "CLASSIFICATION_TYPE": "U",
    "NORAD_CAT_ID": 58540,
    "ELEMENT_SET_NO": 999,
    "REV_AT_EPOCH": 7589,
    "BSTAR": 9.558e-7,
    "MEAN_MOTION_DOT": -3.31e-6,
    "MEAN_MOTION_DDOT": 0
  },
  {
    "OBJECT_NAME": "STARLINK-31045",
    "OBJECT_ID": "2023-192L",
    "EPOCH": "2025-04-16T16:13:41.418912",
    "MEAN_MOTION": 15.04925287,
    "ECCENTRICITY": 0.0001436,
    "INCLINATION": 53.1608,
    "RA_OF_ASC_NODE": 205.4235,
    "ARG_OF_PERICENTER": 108.2595,
    "MEAN_ANOMALY": 251.8551,
    "EPHEMERIS_TYPE": 0,
    "CLASSIFICATION_TYPE": "U",
    "NORAD_CAT_ID": 58541,
    "ELEMENT_SET_NO": 999,
    "REV_AT_EPOCH": 7501,
    "BSTAR": 4.4025e-5,
    "MEAN_MOTION_DOT": 3.53e-6,
    "MEAN_MOTION_DDOT": 0
  },
  {
    "OBJECT_NAME": "STARLINK-31030",
    "OBJECT_ID": "2023-192M",
    "EPOCH": "2025-04-16T18:58:42.462336",
    "MEAN_MOTION": 15.30198588,
    "ECCENTRICITY": 6.23e-5,
    "INCLINATION": 53.1587,
    "RA_OF_ASC_NODE": 141.2943,
    "ARG_OF_PERICENTER": 94.2972,
    "MEAN_ANOMALY": 265.81,
    "EPHEMERIS_TYPE": 0,
    "CLASSIFICATION_TYPE": "U",
    "NORAD_CAT_ID": 58542,
    "ELEMENT_SET_NO": 999,
    "REV_AT_EPOCH": 7593,
    "BSTAR": 1.2579e-6,
    "MEAN_MOTION_DOT": -3.21e-6,
    "MEAN_MOTION_DDOT": 0
  },
  {
    "OBJECT_NAME": "STARLINK-31049",
    "OBJECT_ID": "2023-192N",
    "EPOCH": "2025-04-16T19:03:15.984000",
    "MEAN_MOTION": 15.30198814,
    "ECCENTRICITY": 9.25e-5,
    "INCLINATION": 53.1573,
    "RA_OF_ASC_NODE": 141.3129,
    "ARG_OF_PERICENTER": 74.8116,
    "MEAN_ANOMALY": 285.2987,
    "EPHEMERIS_TYPE": 0,
    "CLASSIFICATION_TYPE": "U",
    "NORAD_CAT_ID": 58543,
    "ELEMENT_SET_NO": 999,
    "REV_AT_EPOCH": 7593,
    "BSTAR": -1.4443e-5,
    "MEAN_MOTION_DOT": -7.87e-6,
    "MEAN_MOTION_DDOT": 0
  },
  {
    "OBJECT_NAME": "STARLINK-31048",
    "OBJECT_ID": "2023-192P",
    "EPOCH": "2025-04-16T08:42:42.859584",
    "MEAN_MOTION": 15.30201206,
    "ECCENTRICITY": 0.0001239,
    "INCLINATION": 53.1584,
    "RA_OF_ASC_NODE": 142.854,
    "ARG_OF_PERICENTER": 72.0256,
    "MEAN_ANOMALY": 288.0879,
    "EPHEMERIS_TYPE": 0,
    "CLASSIFICATION_TYPE": "U",
    "NORAD_CAT_ID": 58544,
    "ELEMENT_SET_NO": 999,
    "REV_AT_EPOCH": 7707,
    "BSTAR": 7.8913e-5,
    "MEAN_MOTION_DOT": 1.979e-5,
    "MEAN_MOTION_DDOT": 0
  },
  {
    "OBJECT_NAME": "STARLINK-31057",
    "OBJECT_ID": "2023-192Q",
    "EPOCH": "2025-04-16T19:07:51.290688",
    "MEAN_MOTION": 15.30193086,
    "ECCENTRICITY": 0.0001284,
    "INCLINATION": 53.1576,
    "RA_OF_ASC_NODE": 141.3353,
    "ARG_OF_PERICENTER": 116.669,
    "MEAN_ANOMALY": 243.4443,
    "EPHEMERIS_TYPE": 0,
    "CLASSIFICATION_TYPE": "U",
    "NORAD_CAT_ID": 58545,
    "ELEMENT_SET_NO": 999,
    "REV_AT_EPOCH": 7593,
    "BSTAR": 0.0004999,
    "MEAN_MOTION_DOT": 0.00014472,
    "MEAN_MOTION_DDOT": 0
  },
  {
    "OBJECT_NAME": "STARLINK-31050",
    "OBJECT_ID": "2023-192R",
    "EPOCH": "2025-04-16T19:12:22.877856",
    "MEAN_MOTION": 15.30199655,
    "ECCENTRICITY": 0.0001238,
    "INCLINATION": 53.1582,
    "RA_OF_ASC_NODE": 141.3543,
    "ARG_OF_PERICENTER": 93.4512,
    "MEAN_ANOMALY": 266.663,
    "EPHEMERIS_TYPE": 0,
    "CLASSIFICATION_TYPE": "U",
    "NORAD_CAT_ID": 58546,
    "ELEMENT_SET_NO": 999,
    "REV_AT_EPOCH": 7593,
    "BSTAR": 5.6102e-5,
    "MEAN_MOTION_DOT": 1.303e-5,
    "MEAN_MOTION_DDOT": 0
  },
  {
    "OBJECT_NAME": "STARLINK-31063",
    "OBJECT_ID": "2023-192S",
    "EPOCH": "2025-04-16T11:39:58.719456",
    "MEAN_MOTION": 15.39628664,
    "ECCENTRICITY": 0.0001265,
    "INCLINATION": 53.1597,
    "RA_OF_ASC_NODE": 133.6883,
    "ARG_OF_PERICENTER": 83.2185,
    "MEAN_ANOMALY": 276.8964,
    "EPHEMERIS_TYPE": 0,
    "CLASSIFICATION_TYPE": "U",
    "NORAD_CAT_ID": 58547,
    "ELEMENT_SET_NO": 999,
    "REV_AT_EPOCH": 7601,
    "BSTAR": 8.2227e-7,
    "MEAN_MOTION_DOT": -3.66e-6,
    "MEAN_MOTION_DDOT": 0
  },
  {
    "OBJECT_NAME": "STARLINK-31016",
    "OBJECT_ID": "2023-192T",
    "EPOCH": "2025-04-16T11:55:24.495456",
    "MEAN_MOTION": 15.30100417,
    "ECCENTRICITY": 0.0002034,
    "INCLINATION": 53.1596,
    "RA_OF_ASC_NODE": 142.2652,
    "ARG_OF_PERICENTER": 67.4359,
    "MEAN_ANOMALY": 292.6857,
    "EPHEMERIS_TYPE": 0,
    "CLASSIFICATION_TYPE": "U",
    "NORAD_CAT_ID": 58548,
    "ELEMENT_SET_NO": 999,
    "REV_AT_EPOCH": 7708,
    "BSTAR": 0.00075342,
    "MEAN_MOTION_DOT": 0.00021953,
    "MEAN_MOTION_DDOT": 0
  },
  {
    "OBJECT_NAME": "STARLINK-31053",
    "OBJECT_ID": "2023-192U",
    "EPOCH": "2025-04-16T19:16:56.178336",
    "MEAN_MOTION": 15.30205142,
    "ECCENTRICITY": 0.0001406,
    "INCLINATION": 53.1602,
    "RA_OF_ASC_NODE": 141.3733,
    "ARG_OF_PERICENTER": 94.7097,
    "MEAN_ANOMALY": 265.4064,
    "EPHEMERIS_TYPE": 0,
    "CLASSIFICATION_TYPE": "U",
    "NORAD_CAT_ID": 58549,
    "ELEMENT_SET_NO": 999,
    "REV_AT_EPOCH": 7593,
    "BSTAR": 8.5563e-5,
    "MEAN_MOTION_DOT": 2.176e-5,
    "MEAN_MOTION_DDOT": 0
  },
  {
    "OBJECT_NAME": "STARLINK-31056",
    "OBJECT_ID": "2023-192V",
    "EPOCH": "2025-04-16T11:59:56.900832",
    "MEAN_MOTION": 15.30197886,
    "ECCENTRICITY": 0.0001529,
    "INCLINATION": 53.1604,
    "RA_OF_ASC_NODE": 142.3279,
    "ARG_OF_PERICENTER": 86.1353,
    "MEAN_ANOMALY": 273.9823,
    "EPHEMERIS_TYPE": 0,
    "CLASSIFICATION_TYPE": "U",
    "NORAD_CAT_ID": 58550,
    "ELEMENT_SET_NO": 999,
    "REV_AT_EPOCH": 7709,
    "BSTAR": 3.1136e-5,
    "MEAN_MOTION_DOT": 5.63e-6,
    "MEAN_MOTION_DDOT": 0
  },
  {
    "OBJECT_NAME": "STARLINK-30999",
    "OBJECT_ID": "2023-192W",
    "EPOCH": "2025-04-16T18:52:44.063904",
    "MEAN_MOTION": 15.30194736,
    "ECCENTRICITY": 0.0001331,
    "INCLINATION": 53.1606,
    "RA_OF_ASC_NODE": 131.2164,
    "ARG_OF_PERICENTER": 83.0133,
    "MEAN_ANOMALY": 277.1019,
    "EPHEMERIS_TYPE": 0,
    "CLASSIFICATION_TYPE": "U",
    "NORAD_CAT_ID": 58551,
    "ELEMENT_SET_NO": 999,
    "REV_AT_EPOCH": 7607,
    "BSTAR": 1.557e-5,
    "MEAN_MOTION_DOT": 1.02e-6,
    "MEAN_MOTION_DDOT": 0
  },
  {
    "OBJECT_NAME": "STARLINK-31046",
    "OBJECT_ID": "2023-192X",
    "EPOCH": "2025-04-16T11:37:19.029792",
    "MEAN_MOTION": 15.30195057,
    "ECCENTRICITY": 0.0001346,
    "INCLINATION": 53.1604,
    "RA_OF_ASC_NODE": 142.9364,
    "ARG_OF_PERICENTER": 95.5411,
    "MEAN_ANOMALY": 264.5744,
    "EPHEMERIS_TYPE": 0,
    "CLASSIFICATION_TYPE": "U",
    "NORAD_CAT_ID": 58552,
    "ELEMENT_SET_NO": 999,
    "REV_AT_EPOCH": 7588,
    "BSTAR": 3.0875e-5,
    "MEAN_MOTION_DOT": 5.55e-6,
    "MEAN_MOTION_DDOT": 0
  },
  {
    "OBJECT_NAME": "STARLINK-31044",
    "OBJECT_ID": "2023-200A",
    "EPOCH": "2025-04-16T12:28:34.488768",
    "MEAN_MOTION": 15.02542525,
    "ECCENTRICITY": 0.0001283,
    "INCLINATION": 43.0008,
    "RA_OF_ASC_NODE": 147.6262,
    "ARG_OF_PERICENTER": 273.1795,
    "MEAN_ANOMALY": 86.8901,
    "EPHEMERIS_TYPE": 0,
    "CLASSIFICATION_TYPE": "U",
    "NORAD_CAT_ID": 58589,
    "ELEMENT_SET_NO": 999,
    "REV_AT_EPOCH": 7438,
    "BSTAR": 0.00024543,
    "MEAN_MOTION_DOT": 3.114e-5,
    "MEAN_MOTION_DDOT": 0
  },
  {
    "OBJECT_NAME": "STARLINK-31062",
    "OBJECT_ID": "2023-200B",
    "EPOCH": "2025-04-16T19:17:34.108800",
    "MEAN_MOTION": 15.02550915,
    "ECCENTRICITY": 0.000146,
    "INCLINATION": 43.0025,
    "RA_OF_ASC_NODE": 148.0399,
    "ARG_OF_PERICENTER": 262.4205,
    "MEAN_ANOMALY": 97.6471,
    "EPHEMERIS_TYPE": 0,
    "CLASSIFICATION_TYPE": "U",
    "NORAD_CAT_ID": 58590,
    "ELEMENT_SET_NO": 999,
    "REV_AT_EPOCH": 7440,
    "BSTAR": 0.00028771,
    "MEAN_MOTION_DOT": 3.686e-5,
    "MEAN_MOTION_DDOT": 0
  }
]
